H1 CPF  1  HTS 2005 12  7 12  8411 lageos1          NONE
H2  7603901 1155     8820 2005 12 07  0  0  0 2005 12 15  0  0  0   300 1 1  0 0 0
H5  0.2510 
H9 
10 0 53715  85800.00000  0    6746882.509    3546376.432    9566256.793
20 0     -1626.348637     -4997.497626      2971.973062
10 0 53715  86100.00000  0    6163131.765    2030116.518   10361284.598
20 0     -2259.885191     -5090.205493      2319.408867
10 0 53716      0.00000  0    5395090.052     504654.451   10953275.280
20 0     -2852.062326     -5059.006569      1620.609442
10 0 53716    300.00000  0    4457720.894    -993141.055   11330399.057
20 0     -3386.017436     -4906.447670       889.321646
10 0 53716    600.00001  0    3370865.089   -2427632.251   11485063.313
20 0     -3846.175855     -4638.167969       139.997968
10 0 53716    900.00000  0    2158785.915   -3765317.446   11414079.891
20 0     -4218.700842     -4262.734344      -612.501933
10 0 53716   1200.00000  0     849585.508   -4975674.427   11118740.929
20 0     -4491.900229     -3791.395690     -1353.221394
10 0 53716   1500.00000  0    -525492.640   -6031918.813   10604800.788
20 0     -4656.576935     -3237.762939     -2067.421302
10 0 53716   1800.00000  0   -1932856.518   -6911656.411    9882363.897
20 0     -4706.312366     -2617.424064     -2740.891612
10 0 53716   2100.00000  0   -3337432.215   -7597411.693    8965680.485
20 0     -4637.673552     -1947.505188     -3360.252721
10 0 53716   2400.00000  0   -4703580.314   -8077018.065    7872854.296
20 0     -4450.336749     -1246.190287     -3913.239678
10 0 53716   2700.00000  0   -5996036.154   -8343859.560    6625468.538
20 0     -4147.122329      -532.213476     -4388.961856
10 0 53716   3000.00000  0   -7180846.948   -8396958.037    5248138.531
20 0     -3733.938887       175.660584     -4778.130736
10 0 53716   3300.00001  0   -8226278.658   -8240904.768    3768001.634
20 0     -3219.638059       859.151748     -5073.249336
10 0 53716   3600.00000  0   -9103666.493   -7885640.216    2214156.740
20 0     -2615.784942      1500.958691     -5268.758254
10 0 53716   3900.00000  0   -9788184.827   -7346090.580     617066.927
20 0     -1936.351996      2085.217116     -5361.134826
10 0 53716   4200.00000  0  -10259515.101   -6641674.038    -992060.345
20 0     -1197.347034      2597.907991     -5348.943455
10 0 53716   4500.00000  0  -10502393.836   -5795693.537   -2581900.773
20 0      -416.388289      3027.203954     -5232.836983
10 0 53716   4800.00000  0  -10507027.044   -4834636.111   -4121634.014
20 0       387.758728      3363.744718     -5015.510917
10 0 53716   5100.00000  0  -10269361.912   -3787401.029   -5581544.132
20 0      1195.667125      3600.835488     -4701.614262
10 0 53716   5400.00000  0   -9791211.190   -2684480.321   -6933587.428
20 0      1987.742155      3734.565806     -4297.622137
10 0 53716   5700.00000  0   -9080230.150   -1557115.567   -8151917.059
20 0      2744.708401      3763.849275     -3811.676185
10 0 53716   6000.00001  0   -8149749.919    -436454.282   -9213355.736
20 0      3448.078179      3690.387252     -3253.399032
10 0 53716   6300.00000  0   -7018474.451     647272.018  -10097809.649
20 0      4080.590537      3518.561605     -2633.689056
10 0 53716   6600.00000  0   -5710051.320    1665527.776  -10788618.620
20 0      4626.612266      3255.263330     -1964.501409
10 0 53716   6900.00000  0   -4252528.733    2592193.277  -11272839.161
20 0      5072.494473      2909.664851     -1258.620466
10 0 53716   7200.00000  0   -2677712.830    3404208.813  -11541458.510
20 0      5406.880167      2492.944266      -529.427822
10 0 53716   7500.00000  0   -1020440.465    4082129.941  -11589538.780
20 0      5620.959684      2017.969735       209.331194
10 0 53716   7800.00000  0     682216.529    4610583.060  -11416291.101
20 0      5708.671673      1498.951829       943.780524
10 0 53716   8100.00000  0    2391798.959    4978612.816  -11025080.093
20 0      5666.847745       951.071223      1660.144639
10 0 53716   8400.00000  0    4069342.610    5179915.001  -10423359.341
20 0      5495.298914       390.088818      2344.977121
10 0 53716   8700.00001  0    5676277.542    5212950.735   -9622538.829
20 0      5196.842003      -168.054681      2985.385497
10 0 53716   9000.00000  0    7175326.113    5080939.831   -8637785.650
20 0      4777.264391      -707.642544      3569.250937
10 0 53716   9300.00000  0    8531380.989    4791733.451   -7487759.799
20 0      4245.225755     -1213.581713      4085.441020
10 0 53716   9600.00000  0    9712344.126    4357568.440   -6194287.478
20 0      3612.096009     -1671.790556      4524.013064
10 0 53716   9900.00000  0   10689907.556    3794708.163   -4781975.211
20 0      2891.729515     -2069.566318      4876.404814
10 0 53716  10200.00000  0   11440257.032    3122977.252   -3277769.124
20 0      2100.176986     -2395.923479      5135.608585
10 0 53716  10500.00000  0   11944680.260    2365200.335   -1710465.024
20 0      1255.338128     -2641.893962      5296.324349
10 0 53716  10800.00000  0   12190062.648    1546557.560    -110176.324
20 0       376.560187     -2800.780137      5355.086892
10 0 53716  11100.00000  0   12169255.408     693872.385    1492231.691
20 0      -515.810141     -2868.352029      5310.362166
10 0 53716  11400.00001  0   11881303.422    -165150.460    3065731.302
20 0     -1400.911733     -2842.981150      5162.608372
10 0 53716  11700.00000  0   11331523.512   -1002716.865    4579734.348
20 0     -2257.879243     -2725.704776      4914.297913
10 0 53716  12000.00000  0   10531427.538   -1791743.522    6004694.561
20 0     -3066.364886     -2520.216430      4569.897429
10 0 53716  12300.00000  0    9498489.086   -2506643.909    7312697.431
20 0     -3807.056997     -2232.780647      4135.804479
10 0 53716  12600.00000  0    8255756.958   -3124077.397    8478024.558
20 0     -4462.180106     -1872.072675      3620.240912
10 0 53716  12900.00000  0    6831323.312   -3623639.383    9477679.683
20 0     -5015.961552     -1448.946363      3033.104383
10 0 53716  13200.00000  0    5257658.606   -3988471.700   10291864.222
20 0     -5455.050471      -976.135942      2385.780692
10 0 53716  13500.00000  0    3570829.628   -4205774.617   10904391.078
20 0     -5768.876289      -467.899703      1690.920769
10 0 53716  13800.00000  0    1809620.461   -4267204.457   11303026.857
20 0     -5949.935628        60.384443       962.187204
10 0 53716  14100.00001  0      14579.259   -4169144.108   11479754.170
20 0     -5993.998710       592.659828       213.975996
10 0 53716  14400.00000  0   -1772983.991   -3912837.410   11430947.529
20 0     -5900.228843      1112.655402      -538.880174
10 0 53716  14700.00000  0   -3512021.997   -3504382.413   11157458.264
20 0     -5671.211148      1604.359929     -1281.420619
10 0 53716  15000.00000  0   -5162769.492   -2954582.654   10664605.876
20 0     -5312.889052      2052.491977     -1998.870625
10 0 53716  15300.00000  0   -6687729.733   -2278659.835    9962075.266
20 0     -4834.409330      2442.951526     -2676.953791
10 0 53716  15600.00000  0   -8052601.186   -1495835.534    9063721.422
20 0     -4247.879016      2763.239209     -3302.195309
10 0 53716  15900.00000  0   -9227118.804    -628793.685    7987285.451
20 0     -3568.040431      3002.829803     -3862.208496
10 0 53716  16200.00000  0  -10185786.635     296960.601    6754028.099
20 0     -2811.873469      3153.487879     -4345.957073
10 0 53716  16500.00000  0  -10908481.647    1253826.910    5388289.122
20 0     -1998.136887      3209.515301     -4743.986143
10 0 53716  16800.00001  0  -11380912.526    2212898.395    3916982.845
20 0     -1146.862659      3167.922534     -5048.615595
10 0 53716  17100.00000  0  -11594921.695    3144789.914    2369042.021
20 0      -278.819245      3028.518485     -5254.090666
10 0 53716  17400.00000  0  -11548623.788    4020480.573     774823.438
20 0       585.039084      2793.916610     -5356.685848
10 0 53716  17700.00000  0  -11246379.027    4812145.620    -834510.363
20 0      1424.119316      2469.458222     -5354.760031
10 0 53716  18000.00000  0  -10698605.164    5493953.383   -2427618.542
20 0      2218.716055      2063.057053     -5248.762691
10 0 53716  18300.00000  0   -9921436.620    6042804.583   -3973604.121
20 0      2950.501440      1584.971921     -5041.192782
10 0 53716  18600.00000  0   -8936243.853    6438993.800   -5442617.107
20 0      3602.964889      1047.516699     -4736.513643
10 0 53716  18900.00000  0   -7769029.766    6666775.870   -6806426.081
20 0      4161.791506       464.718638     -4341.028770
10 0 53716  19200.00000  0   -6449722.831    6714823.559   -8038947.400
20 0      4615.171156      -148.062855     -3862.724553
10 0 53716  19500.00001  0   -5011388.510    6576566.466   -9116723.094
20 0      4954.033634      -774.544648     -3311.086662
10 0 53716  19800.00000  0   -3489381.420    6250404.806  -10019340.566
20 0      5172.208500     -1397.943814     -2696.896670
10 0 53716  20100.00000  0   -1920460.733    5739795.039  -10729789.042
20 0      5266.510691     -2001.406290     -2032.014736
10 0 53716  20400.00000  0    -341890.697    5053207.403  -11234749.369
20 0      5236.754740     -2568.430716     -1329.153244
10 0 53716  20700.00000  0    1209452.906    4203958.095  -11524815.049
20 0      5085.701649     -3083.278986      -601.645347
10 0 53716  21000.00000  0    2697950.838    3209921.203  -11594643.457
20 0      4818.943135     -3531.366170       136.788604
10 0 53716  21300.00000  0    4090064.997    2093127.584  -11443036.950
20 0      4444.728283     -3899.623301       872.274562
10 0 53716  21600.00000  0    5355102.996     879259.711  -11072954.142
20 0      3973.737733     -4176.827143      1591.016631
10 0 53716  21900.00000  0    6465907.782    -402946.762  -10491452.025
20 0      3418.810503     -4353.891464      2279.526054
99